CALSPHERE 1             
1 00900U 64063C   22298.23811199  .00000530  00000+0  55468-3 0  9993
2 00900  90.1837  43.3102 0025763 355.2187  35.1270 13.73938830888474
CALSPHERE 2             
1 00902U 64063E   22297.83832215  .00000050  00000+0  61919-4 0  9998
2 00902  90.1980  46.4694 0019987 128.8075 353.7191 13.52725187676265
LCS 1                   
1 01361U 65034C   22297.87503565  .00000008  00000+0 -10766-3 0  9991
2 01361  32.1389  97.9954 0012130 335.5177  24.4744  9.89302224 78043
TEMPSAT 1               
1 01512U 65065E   22297.74344969  .00000056  00000+0  93919-4 0  9994
2 01512  89.9245 217.6198 0071075  28.8043 349.0384 13.33458883782607
CALSPHERE 4A            
1 01520U 65065H   22297.79178560  .00000091  00000+0  16033-3 0  9990
2 01520  89.9806 130.0436 0067541 258.7065 231.5375 13.35911349784928
OPS 5712 (P/L 160)      
1 02826U 67053A   22297.87122385  .00002443  00000+0  62964-3 0  9999
2 02826  69.9295 345.3568 0005568 214.1349 145.9427 14.51224258871509
OPS 5712 (P/L 153)      
1 02874U 67053H   22298.36327017  .00000010  00000+0  46038-4 0  9999
2 02874  69.9727  86.8798 0005140 140.8227 219.3251 13.96423705821445
SURCAL 150B             
1 02909U 67053J   22297.75466736  .00004009  00000+0  75834-3 0  9999
2 02909  69.9472 328.6572 0005932 247.9188 112.1323 14.65074276882542
RIGIDSPHERE 2 (LCS 4)   
1 05398U 71067E   22297.82627239  .00000525  00000+0  17705-3 0  9991
2 05398  87.6252 347.3265 0061431 320.0999  39.5690 14.34361987682806
COSMOS 2493 (SKRL-756 1)
1 39490U 13078A   22298.43325914  .00001430  00000+0  14628-3 0  9999
2 39490  82.4149 109.5989 0017690  29.6403 330.5813 14.89770780479377
COSMOS 2494 (SKRL-756 2)
1 39491U 13078B   22298.41529285  .00001543  00000+0  15203-3 0  9990
2 39491  82.4150 103.1090 0021589   4.3895 355.7508 14.91246000479703
